{
  "type": "FeatureCollection",
  "features": [
    {
      "type": "Feature",
      "properties": {
        "norad_id": 33412,
        "name": "COSMO-SKYMED 3",
        "group": "resource",
        "lat": -8.436410412257047,
        "lon": -156.36346978820055,
        "alt_km": 565.3193031064538,
        "timestamp": "2025-12-17T23:38:06.519770+00:00",
        "meta_object_name": "COSMO-SKYMED 3",
        "meta_object_id": "2008-054A",
        "meta_epoch": "2025-12-17T14:06:05.330016",
        "meta_mean_motion": 15.05403632,
        "meta_eccentricity": 0.00165421,
        "meta_inclination": 97.8472,
        "meta_ra_of_asc_node": 202.0606,
        "meta_arg_of_pericenter": 156.2095,
        "meta_mean_anomaly": 203.9899,
        "meta_ephemeris_type": 0,
        "meta_classification_type": "U",
        "meta_norad_cat_id": 33412,
        "meta_element_set_no": 999,
        "meta_rev_at_epoch": 92960,
        "meta_bstar": 0.00030862449,
        "meta_mean_motion_dot": 4.375e-05,
        "meta_mean_motion_ddot": 0,
        "tle_line1": "1 33412U 08054A   25351.58756169  .00004375  00000+0  30862-3 0  9993",
        "tle_line2": "2 33412  97.8472 202.0606 0016542 156.2095 203.9899 15.05403632929609"
      },
      "geometry": {
        "type": "Point",
        "coordinates": [
          -156.36346978820055,
          -8.436410412257047
        ]
      }
    },
    {
      "type": "Feature",
      "properties": {
        "norad_id": 33446,
        "name": "YAOGAN-4",
        "group": "resource",
        "lat": -80.65087771726245,
        "lon": 44.31512141520244,
        "alt_km": 621.0507972825162,
        "timestamp": "2025-12-17T23:38:06.519781+00:00",
        "meta_object_name": "YAOGAN-4",
        "meta_object_id": "2008-061A",
        "meta_epoch": "2025-12-17T12:43:27.984864",
        "meta_mean_motion": 14.82696581,
        "meta_eccentricity": 0.00132888,
        "meta_inclination": 97.9187,
        "meta_ra_of_asc_node": 281.5825,
        "meta_arg_of_pericenter": 306.5713,
        "meta_mean_anomaly": 53.4277,
        "meta_ephemeris_type": 0,
        "meta_classification_type": "U",
        "meta_norad_cat_id": 33446,
        "meta_element_set_no": 999,
        "meta_rev_at_epoch": 91874,
        "meta_bstar": 0.00015271326,
        "meta_mean_motion_dot": 1.18e-05,
        "meta_mean_motion_ddot": 0,
        "tle_line1": "1 33446U 08061A   25351.53018501  .00001180  00000+0  15271-3 0  9992",
        "tle_line2": "2 33446  97.9187 281.5825 0013288 306.5713  53.4277 14.82696581918748"
      },
      "geometry": {
        "type": "Point",
        "coordinates": [
          44.31512141520244,
          -80.65087771726245
        ]
      }
    },
    {
      "type": "Feature",
      "properties": {
        "norad_id": 33492,
        "name": "GOSAT (IBUKI)",
        "group": "resource",
        "lat": 31.172384169667943,
        "lon": 95.58677832332332,
        "alt_km": 666.9512963200568,
        "timestamp": "2025-12-17T23:38:06.519791+00:00",
        "meta_object_name": "GOSAT (IBUKI)",
        "meta_object_id": "2009-002A",
        "meta_epoch": "2025-12-17T13:40:25.403808",
        "meta_mean_motion": 14.67535073,
        "meta_eccentricity": 9.733e-05,
        "meta_inclination": 98.0771,
        "meta_ra_of_asc_node": 100.1059,
        "meta_arg_of_pericenter": 98.3075,
        "meta_mean_anomaly": 261.824,
        "meta_ephemeris_type": 0,
        "meta_classification_type": "U",
        "meta_norad_cat_id": 33492,
        "meta_element_set_no": 999,
        "meta_rev_at_epoch": 90482,
        "meta_bstar": 0.00013505724,
        "meta_mean_motion_dot": 7.18e-06,
        "meta_mean_motion_ddot": 0,
        "tle_line1": "1 33492U 09002A   25351.56973847  .00000718  00000+0  13506-3 0  9990",
        "tle_line2": "2 33492  98.0771 100.1059 0000973  98.3075 261.8240 14.67535073904829"
      },
      "geometry": {
        "type": "Point",
        "coordinates": [
          95.58677832332332,
          31.172384169667943
        ]
      }
    },
    {
      "type": "Feature",
      "properties": {
        "norad_id": 35681,
        "name": "DEIMOS-1",
        "group": "resource",
        "lat": -67.74295771125651,
        "lon": -46.998927441119214,
        "alt_km": 654.4009901744212,
        "timestamp": "2025-12-17T23:38:06.519802+00:00",
        "meta_object_name": "DEIMOS-1",
        "meta_object_id": "2009-041A",
        "meta_epoch": "2025-12-17T14:22:07.864896",
        "meta_mean_motion": 14.74959554,
        "meta_eccentricity": 0.00026436,
        "meta_inclination": 97.7141,
        "meta_ra_of_asc_node": 151.975,
        "meta_arg_of_pericenter": 71.3807,
        "meta_mean_anomaly": 288.769,
        "meta_ephemeris_type": 0,
        "meta_classification_type": "U",
        "meta_norad_cat_id": 35681,
        "meta_element_set_no": 999,
        "meta_rev_at_epoch": 88011,
        "meta_bstar": 6.1337004e-05,
        "meta_mean_motion_dot": 3.65e-06,
        "meta_mean_motion_ddot": 0,
        "tle_line1": "1 35681U 09041A   25351.59870214  .00000365  00000+0  61337-4 0  9996",
        "tle_line2": "2 35681  97.7141 151.9750 0002643  71.3807 288.7690 14.74959554880114"
      },
      "geometry": {
        "type": "Point",
        "coordinates": [
          -46.998927441119214,
          -67.74295771125651
        ]
      }
    },
    {
      "type": "Feature",
      "properties": {
        "norad_id": 35682,
        "name": "DUBAISAT-1",
        "group": "resource",
        "lat": 2.4577429327172498,
        "lon": -57.06783807480227,
        "alt_km": 652.2029265145275,
        "timestamp": "2025-12-17T23:38:06.519813+00:00",
        "meta_object_name": "DUBAISAT-1",
        "meta_object_id": "2009-041B",
        "meta_epoch": "2025-12-17T08:10:32.218752",
        "meta_mean_motion": 14.74616887,
        "meta_eccentricity": 0.00093641,
        "meta_inclination": 97.9794,
        "meta_ra_of_asc_node": 121.9527,
        "meta_arg_of_pericenter": 298.1666,
        "meta_mean_anomaly": 61.8596,
        "meta_ephemeris_type": 0,
        "meta_classification_type": "U",
        "meta_norad_cat_id": 35682,
        "meta_element_set_no": 999,
        "meta_rev_at_epoch": 87829,
        "meta_bstar": 0.00017592633,
        "meta_mean_motion_dot": 1.123e-05,
        "meta_mean_motion_ddot": 0,
        "tle_line1": "1 35682U 09041B   25351.34065068  .00001123  00000+0  17593-3 0  9990",
        "tle_line2": "2 35682  97.9794 121.9527 0009364 298.1666  61.8596 14.74616887878299"
      },
      "geometry": {
        "type": "Point",
        "coordinates": [
          -57.06783807480227,
          2.4577429327172498
        ]
      }
    },
    {
      "type": "Feature",
      "properties": {
        "norad_id": 35931,
        "name": "OCEANSAT-2",
        "group": "resource",
        "lat": 20.756993419681027,
        "lon": -11.08781885597972,
        "alt_km": 883.4503204588564,
        "timestamp": "2025-12-17T23:38:06.519823+00:00",
        "meta_object_name": "OCEANSAT-2",
        "meta_object_id": "2009-051A",
        "meta_epoch": "2025-12-17T14:57:25.089984",
        "meta_mean_motion": 13.99623645,
        "meta_eccentricity": 0.00160867,
        "meta_inclination": 98.2218,
        "meta_ra_of_asc_node": 351.7285,
        "meta_arg_of_pericenter": 32.2647,
        "meta_mean_anomaly": 327.9501,
        "meta_ephemeris_type": 0,
        "meta_classification_type": "U",
        "meta_norad_cat_id": 35931,
        "meta_element_set_no": 999,
        "meta_rev_at_epoch": 85393,
        "meta_bstar": -7.0243645e-05,
        "meta_mean_motion_dot": -1.4e-06,
        "meta_mean_motion_ddot": 0,
        "tle_line1": "1 35931U 09051A   25351.62320706 -.00000140  00000+0 -70244-4 0  9995",
        "tle_line2": "2 35931  98.2218 351.7285 0016086  32.2647 327.9501 13.99623645853932"
      },
      "geometry": {
        "type": "Point",
        "coordinates": [
          -11.08781885597972,
          20.756993419681027
        ]
      }
    },
    {
      "type": "Feature",
      "properties": {
        "norad_id": 35946,
        "name": "WORLDVIEW-2 (WV-2)",
        "group": "resource",
        "lat": 38.38302557322596,
        "lon": -110.21719373087836,
        "alt_km": 762.7166009798766,
        "timestamp": "2025-12-17T23:38:06.519833+00:00",
        "meta_object_name": "WORLDVIEW-2 (WV-2)",
        "meta_object_id": "2009-055A",
        "meta_epoch": "2025-12-17T14:37:49.974816",
        "meta_mean_motion": 14.37726098,
        "meta_eccentricity": 0.00050291,
        "meta_inclination": 98.4784,
        "meta_ra_of_asc_node": 62.6273,
        "meta_arg_of_pericenter": 58.8122,
        "meta_mean_anomaly": 301.3557,
        "meta_ephemeris_type": 0,
        "meta_classification_type": "U",
        "meta_norad_cat_id": 35946,
        "meta_element_set_no": 999,
        "meta_rev_at_epoch": 84955,
        "meta_bstar": 5.9960652e-05,
        "meta_mean_motion_dot": 1.37e-06,
        "meta_mean_motion_ddot": 0,
        "tle_line1": "1 35946U 09055A   25351.60960619  .00000137  00000+0  59961-4 0  9993",
        "tle_line2": "2 35946  98.4784  62.6273 0005029  58.8122 301.3557 14.37726098849559"
      },
      "geometry": {
        "type": "Point",
        "coordinates": [
          -110.21719373087836,
          38.38302557322596
        ]
      }
    }
  ]
}